[{"OBJECT_NAME":"STARLINK-3294","OBJECT_ID":"2022-001AC","EPOCH":"2026-03-09T12:00:28.690848","MEAN_MOTION":15.08832734,"ECCENTRICITY":0.00014445,"INCLINATION":53.2176,"RA_OF_ASC_NODE":169.9689,"ARG_OF_PERICENTER":103.8917,"MEAN_ANOMALY":256.2236,"EPHEMERIS_TYPE":0,"CLASSIFICATION_TYPE":"U","NORAD_CAT_ID":50829,"ELEMENT_SET_NO":999,"REV_AT_EPOCH":23037,"BSTAR":-3.8126067e-5,"MEAN_MOTION_DOT":-8.95e-6,"MEAN_MOTION_DDOT":0},{"OBJECT_NAME":"ATLAS H R\/B","OBJECT_ID":"1987-043B","EPOCH":"2026-03-09T13:01:50.955168","MEAN_MOTION":13.51112774,"ECCENTRICITY":0.07077502,"INCLINATION":63.3177,"RA_OF_ASC_NODE":133.9687,"ARG_OF_PERICENTER":116.0924,"MEAN_ANOMALY":251.4684,"EPHEMERIS_TYPE":0,"CLASSIFICATION_TYPE":"U","NORAD_CAT_ID":17998,"ELEMENT_SET_NO":999,"REV_AT_EPOCH":33779,"BSTAR":0.00041214221,"MEAN_MOTION_DOT":1.232e-5,"MEAN_MOTION_DDOT":0}]
